{
  "type": "FeatureCollection",
  "features": [
    {
      "type": "Feature",
      "properties": {
        "norad_id": 66648,
        "name": "COSMOS 2598 (RODNIK-S 23)",
        "group": "last-30-days",
        "lat": 40.64316023194209,
        "lon": 103.56402098902858,
        "alt_km": 1499.1573856697296,
        "timestamp": "2025-12-06T22:38:41.509928+00:00",
        "meta_object_name": "COSMOS 2598 (RODNIK-S 23)",
        "meta_object_id": "2025-273B",
        "meta_epoch": "2025-12-05T22:42:15.560352",
        "meta_mean_motion": 12.42257804,
        "meta_eccentricity": 0.0007951,
        "meta_inclination": 82.5021,
        "meta_ra_of_asc_node": 290.6739,
        "meta_arg_of_pericenter": 291.8823,
        "meta_mean_anomaly": 68.1411,
        "meta_ephemeris_type": 0,
        "meta_classification_type": "U",
        "meta_norad_cat_id": 66648,
        "meta_element_set_no": 999,
        "meta_rev_at_epoch": 129,
        "meta_bstar": -5.8823389e-05,
        "meta_mean_motion_dot": 2e-08,
        "meta_mean_motion_ddot": 0,
        "tle_line1": "1 66648U 25273B   25339.94601343  .00000002  00000+0 -58823-4 0  9993",
        "tle_line2": "2 66648  82.5021 290.6739 0007951 291.8823  68.1411 12.42257804  1299"
      },
      "geometry": {
        "type": "Point",
        "coordinates": [
          103.56402098902858,
          40.64316023194209
        ]
      }
    },
    {
      "type": "Feature",
      "properties": {
        "norad_id": 66649,
        "name": "COSMOS 2599 (RODNIK-S 24)",
        "group": "last-30-days",
        "lat": 63.67217107663027,
        "lon": 94.62855514561973,
        "alt_km": 1499.4540841800872,
        "timestamp": "2025-12-06T22:38:41.509939+00:00",
        "meta_object_name": "COSMOS 2599 (RODNIK-S 24)",
        "meta_object_id": "2025-273C",
        "meta_epoch": "2025-12-06T14:17:26.786688",
        "meta_mean_motion": 12.41671811,
        "meta_eccentricity": 0.00082539,
        "meta_inclination": 82.5021,
        "meta_ra_of_asc_node": 290.2779,
        "meta_arg_of_pericenter": 314.1734,
        "meta_mean_anomaly": 45.8666,
        "meta_ephemeris_type": 0,
        "meta_classification_type": "U",
        "meta_norad_cat_id": 66649,
        "meta_element_set_no": 999,
        "meta_rev_at_epoch": 137,
        "meta_bstar": 1.5589016e-05,
        "meta_mean_motion_dot": 1.2e-07,
        "meta_mean_motion_ddot": 0,
        "tle_line1": "1 66649U 25273C   25340.59544892  .00000012  00000+0  15589-4 0  9994",
        "tle_line2": "2 66649  82.5021 290.2779 0008253 314.1734  45.8666 12.41671811  1376"
      },
      "geometry": {
        "type": "Point",
        "coordinates": [
          94.62855514561973,
          63.67217107663027
        ]
      }
    },
    {
      "type": "Feature",
      "properties": {
        "norad_id": 66650,
        "name": "BEE-1000",
        "group": "last-30-days",
        "lat": 33.70912741680847,
        "lon": 93.44302551156329,
        "alt_km": 595.292852868839,
        "timestamp": "2025-12-06T22:38:41.509953+00:00",
        "meta_object_name": "BEE-1000",
        "meta_object_id": "2025-274A",
        "meta_epoch": "2025-12-06T05:53:32.979840",
        "meta_mean_motion": 14.91627557,
        "meta_eccentricity": 0.00104282,
        "meta_inclination": 97.739,
        "meta_ra_of_asc_node": 267.5526,
        "meta_arg_of_pericenter": 276.7106,
        "meta_mean_anomaly": 83.2926,
        "meta_ephemeris_type": 0,
        "meta_classification_type": "U",
        "meta_norad_cat_id": 66650,
        "meta_element_set_no": 999,
        "meta_rev_at_epoch": 143,
        "meta_bstar": 0.00030426299,
        "meta_mean_motion_dot": 3.003e-05,
        "meta_mean_motion_ddot": 0,
        "tle_line1": "1 66650U 25274A   25340.24552060  .00003003  00000+0  30426-3 0  9994",
        "tle_line2": "2 66650  97.7390 267.5526 0010428 276.7106  83.2926 14.91627557  1432"
      },
      "geometry": {
        "type": "Point",
        "coordinates": [
          93.44302551156329,
          33.70912741680847
        ]
      }
    },
    {
      "type": "Feature",
      "properties": {
        "norad_id": 66651,
        "name": "2025-274B",
        "group": "last-30-days",
        "lat": 31.224152896370228,
        "lon": 92.96658500449912,
        "alt_km": 595.1736132788737,
        "timestamp": "2025-12-06T22:38:41.509963+00:00",
        "meta_object_name": "2025-274B",
        "meta_object_id": "2025-274B",
        "meta_epoch": "2025-12-06T12:19:18.402816",
        "meta_mean_motion": 14.91725554,
        "meta_eccentricity": 0.00107143,
        "meta_inclination": 97.7387,
        "meta_ra_of_asc_node": 267.8159,
        "meta_arg_of_pericenter": 275.1478,
        "meta_mean_anomaly": 84.8518,
        "meta_ephemeris_type": 0,
        "meta_classification_type": "U",
        "meta_norad_cat_id": 66651,
        "meta_element_set_no": 999,
        "meta_rev_at_epoch": 147,
        "meta_bstar": 0.00060221118,
        "meta_mean_motion_dot": 6.015e-05,
        "meta_mean_motion_ddot": 0,
        "tle_line1": "1 66651U 25274B   25340.51340744  .00006015  00000+0  60221-3 0  9991",
        "tle_line2": "2 66651  97.7387 267.8159 0010714 275.1478  84.8518 14.91725554  1471"
      },
      "geometry": {
        "type": "Point",
        "coordinates": [
          92.96658500449912,
          31.224152896370228
        ]
      }
    },
    {
      "type": "Feature",
      "properties": {
        "norad_id": 66652,
        "name": "2025-274C",
        "group": "last-30-days",
        "lat": 25.93812312718219,
        "lon": 92.03385665590542,
        "alt_km": 595.6695116402307,
        "timestamp": "2025-12-06T22:38:41.509973+00:00",
        "meta_object_name": "2025-274C",
        "meta_object_id": "2025-274C",
        "meta_epoch": "2025-12-06T12:17:55.747392",
        "meta_mean_motion": 14.91854531,
        "meta_eccentricity": 0.00104181,
        "meta_inclination": 97.739,
        "meta_ra_of_asc_node": 267.818,
        "meta_arg_of_pericenter": 282.0783,
        "meta_mean_anomaly": 77.9269,
        "meta_ephemeris_type": 0,
        "meta_classification_type": "U",
        "meta_norad_cat_id": 66652,
        "meta_element_set_no": 999,
        "meta_rev_at_epoch": 147,
        "meta_bstar": 0.00042329797,
        "meta_mean_motion_dot": 4.224e-05,
        "meta_mean_motion_ddot": 0,
        "tle_line1": "1 66652U 25274C   25340.51245078  .00004224  00000+0  42330-3 0  9997",
        "tle_line2": "2 66652  97.7390 267.8180 0010418 282.0783  77.9269 14.91854531  1471"
      },
      "geometry": {
        "type": "Point",
        "coordinates": [
          92.03385665590542,
          25.93812312718219
        ]
      }
    },
    {
      "type": "Feature",
      "properties": {
        "norad_id": 66653,
        "name": "2025-274D",
        "group": "last-30-days",
        "lat": 25.67776024078393,
        "lon": 91.99007393337185,
        "alt_km": 595.5249781077509,
        "timestamp": "2025-12-06T22:38:41.509985+00:00",
        "meta_object_name": "2025-274D",
        "meta_object_id": "2025-274D",
        "meta_epoch": "2025-12-06T12:17:51.211392",
        "meta_mean_motion": 14.91858206,
        "meta_eccentricity": 0.00112287,
        "meta_inclination": 97.7389,
        "meta_ra_of_asc_node": 267.818,
        "meta_arg_of_pericenter": 277.7634,
        "meta_mean_anomaly": 82.231,
        "meta_ephemeris_type": 0,
        "meta_classification_type": "U",
        "meta_norad_cat_id": 66653,
        "meta_element_set_no": 999,
        "meta_rev_at_epoch": 147,
        "meta_bstar": 0.00036958049,
        "meta_mean_motion_dot": 3.681e-05,
        "meta_mean_motion_ddot": 0,
        "tle_line1": "1 66653U 25274D   25340.51239828  .00003681  00000+0  36958-3 0  9999",
        "tle_line2": "2 66653  97.7389 267.8180 0011228 277.7634  82.2310 14.91858206  1475"
      },
      "geometry": {
        "type": "Point",
        "coordinates": [
          91.99007393337185,
          25.67776024078393
        ]
      }
    },
    {
      "type": "Feature",
      "properties": {
        "norad_id": 66654,
        "name": "JACK E",
        "group": "last-30-days",
        "lat": 19.700297546661563,
        "lon": 91.03536625642434,
        "alt_km": 595.5827758073365,
        "timestamp": "2025-12-06T22:38:41.509997+00:00",
        "meta_object_name": "JACK E",
        "meta_object_id": "2025-274E",
        "meta_epoch": "2025-12-06T12:16:18.064416",
        "meta_mean_motion": 14.92029894,
        "meta_eccentricity": 0.00118143,
        "meta_inclination": 97.7393,
        "meta_ra_of_asc_node": 267.8198,
        "meta_arg_of_pericenter": 279.1697,
        "meta_mean_anomaly": 80.8185,
        "meta_ephemeris_type": 0,
        "meta_classification_type": "U",
        "meta_norad_cat_id": 66654,
        "meta_element_set_no": 999,
        "meta_rev_at_epoch": 147,
        "meta_bstar": 0.00043186765,
        "meta_mean_motion_dot": 4.331e-05,
        "meta_mean_motion_ddot": 0,
        "tle_line1": "1 66654U 25274E   25340.51132019  .00004331  00000+0  43187-3 0  9999",
        "tle_line2": "2 66654  97.7393 267.8198 0011814 279.1697  80.8185 14.92029894  1474"
      },
      "geometry": {
        "type": "Point",
        "coordinates": [
          91.03536625642434,
          19.700297546661563
        ]
      }
    }
  ]
}